start=new Date('2021-12-02T00:00:00.000Z').valueOf();
sats=[{"OBJECT_NAME":"STARLINK-1853","MEAN_ELEMENT_THEORY":"SGP4","APOAPSIS":"334.341","OBJECT_TYPE":"PAYLOAD","OBJECT_ID":"2020-088U","GP_ID":"190861356","PERIAPSIS":"317.684","SEMIMAJOR_AXIS":"6704.148","FILE":"3229140","DECAY_DATE":null,"PERIOD":"91.049","REV_AT_EPOCH":"5762","RCS_SIZE":"LARGE","NORAD_CAT_ID":"47140","MEAN_MOTION":"15.81566264","INCLINATION":"53.0484","CENTER_NAME":"EARTH","TIME_SYSTEM":"UTC","CLASSIFICATION_TYPE":"U","LAUNCH_DATE":"2020-11-25","EPHEMERIS_TYPE":"0","ARG_OF_PERICENTER":"28.0133","ECCENTRICITY":"0.00124230","BSTAR":"0.00056005000000","ELEMENT_SET_NO":"999","RA_OF_ASC_NODE":"44.5905","SITE":"AFETR","COUNTRY_CODE":"US","TLE_LINE1":"1 47140U 20088U   21335.47963623  .00115566  00000-0  56005-3 0  9991","MEAN_ANOMALY":"332.1555","MEAN_MOTION_DDOT":"0.0000000000000","REF_FRAME":"TEME","TLE_LINE2":"2 47140  53.0484  44.5905 0012423  28.0133 332.1555 15.81566264 57626","EPOCH":"2021-12-01T11:30:40.570272","MEAN_MOTION_DOT":"0.00115566"},{"MEAN_MOTION_DDOT":"0.0000000000000","MEAN_ANOMALY":"276.8429","MEAN_MOTION_DOT":"-0.00001382","EPOCH":"2021-12-01T13:09:48.660768","TLE_LINE2":"2 47141  53.0629  90.8369 0001402  83.2719 276.8429 15.06394817 56986","REF_FRAME":"TEME","BSTAR":"-0.00007393300000","ARG_OF_PERICENTER":"83.2719","ECCENTRICITY":"0.00014020","TLE_LINE1":"1 47141U 20088V   21335.54847987 -.00001382  00000-0 -73933-4 0  9996","COUNTRY_CODE":"US","SITE":"AFETR","RA_OF_ASC_NODE":"90.8369","ELEMENT_SET_NO":"999","INCLINATION":"53.0629","MEAN_MOTION":"15.06394817","NORAD_CAT_ID":"47141","EPHEMERIS_TYPE":"0","LAUNCH_DATE":"2020-11-25","CLASSIFICATION_TYPE":"U","TIME_SYSTEM":"UTC","CENTER_NAME":"EARTH","OBJECT_ID":"2020-088V","OBJECT_TYPE":"PAYLOAD","MEAN_ELEMENT_THEORY":"SGP4","APOAPSIS":"548.200","OBJECT_NAME":"STARLINK-1854","REV_AT_EPOCH":"5698","RCS_SIZE":"LARGE","FILE":"3229140","DECAY_DATE":null,"SEMIMAJOR_AXIS":"6925.364","PERIOD":"95.592","PERIAPSIS":"546.259","GP_ID":"190859605"},{"ARG_OF_PERICENTER":"84.6802","ECCENTRICITY":"0.00011000","BSTAR":"0.00006756800000","ELEMENT_SET_NO":"999","RA_OF_ASC_NODE":"90.6471","TLE_LINE1":"1 47143U 20088X   21335.59639193  .00000725  00000-0  67568-4 0  9996","COUNTRY_CODE":"US","SITE":"AFETR","MEAN_MOTION_DDOT":"0.0000000000000","MEAN_ANOMALY":"275.4312","EPOCH":"2021-12-01T14:18:48.262752","TLE_LINE2":"2 47143  53.0562  90.6471 0001100  84.6802 275.4312 15.06397053 56980","REF_FRAME":"TEME","MEAN_MOTION_DOT":"0.00000725","OBJECT_TYPE":"PAYLOAD","APOAPSIS":"547.984","MEAN_ELEMENT_THEORY":"SGP4","OBJECT_NAME":"STARLINK-1856","OBJECT_ID":"2020-088X","PERIAPSIS":"546.461","GP_ID":"190859855","RCS_SIZE":"LARGE","REV_AT_EPOCH":"5698","SEMIMAJOR_AXIS":"6925.358","FILE":"3229140","DECAY_DATE":null,"PERIOD":"95.592","MEAN_MOTION":"15.06397053","NORAD_CAT_ID":"47143","INCLINATION":"53.0562","LAUNCH_DATE":"2020-11-25","CLASSIFICATION_TYPE":"U","TIME_SYSTEM":"UTC","CENTER_NAME":"EARTH","EPHEMERIS_TYPE":"0"},{"BSTAR":"0.00005274900000","ECCENTRICITY":"0.00012510","ARG_OF_PERICENTER":"78.0756","SITE":"AFETR","TLE_LINE1":"1 47144U 20088Y   21335.58257036  .00000504  00000-0  52749-4 0  9998","COUNTRY_CODE":"US","RA_OF_ASC_NODE":"80.7215","ELEMENT_SET_NO":"999","MEAN_ANOMALY":"282.0373","MEAN_MOTION_DDOT":"0.0000000000000","MEAN_MOTION_DOT":"0.00000504","REF_FRAME":"TEME","TLE_LINE2":"2 47144  53.0563  80.7215 0001251  78.0756 282.0373 15.06393028 57126","EPOCH":"2021-12-01T13:58:54.079104","OBJECT_ID":"2020-088Y","OBJECT_NAME":"STARLINK-1857","OBJECT_TYPE":"PAYLOAD","MEAN_ELEMENT_THEORY":"SGP4","APOAPSIS":"548.101","RCS_SIZE":"LARGE","REV_AT_EPOCH":"5712","FILE":"3229140","DECAY_DATE":null,"SEMIMAJOR_AXIS":"6925.370","PERIOD":"95.593","GP_ID":"190860606","PERIAPSIS":"546.369","INCLINATION":"53.0563","NORAD_CAT_ID":"47144","MEAN_MOTION":"15.06393028","EPHEMERIS_TYPE":"0","CENTER_NAME":"EARTH","LAUNCH_DATE":"2020-11-25","TIME_SYSTEM":"UTC","CLASSIFICATION_TYPE":"U"},{"REF_FRAME":"TEME","TLE_LINE2":"2 47145  53.0562  80.7460 0002351 235.7700 124.3066 15.06403107 57128","EPOCH":"2021-12-01T13:48:16.453152","MEAN_MOTION_DOT":"0.00001820","MEAN_ANOMALY":"124.3066","MEAN_MOTION_DDOT":"0.0000000000000","ELEMENT_SET_NO":"999","RA_OF_ASC_NODE":"80.7460","SITE":"AFETR","TLE_LINE1":"1 47145U 20088Z   21335.57519043  .00001820  00000-0  14103-3 0  9990","COUNTRY_CODE":"US","ARG_OF_PERICENTER":"235.7700","ECCENTRICITY":"0.00023510","BSTAR":"0.00014103000000","CENTER_NAME":"EARTH","LAUNCH_DATE":"2020-11-25","TIME_SYSTEM":"UTC","CLASSIFICATION_TYPE":"U","EPHEMERIS_TYPE":"0","NORAD_CAT_ID":"47145","MEAN_MOTION":"15.06403107","INCLINATION":"53.0562","GP_ID":"190860857","PERIAPSIS":"545.576","REV_AT_EPOCH":"5712","RCS_SIZE":"LARGE","PERIOD":"95.592","FILE":"3229140","DECAY_DATE":null,"SEMIMAJOR_AXIS":"6925.339","OBJECT_NAME":"STARLINK-1858","OBJECT_TYPE":"PAYLOAD","MEAN_ELEMENT_THEORY":"SGP4","APOAPSIS":"548.832","OBJECT_ID":"2020-088Z"},{"ELEMENT_SET_NO":"999","RA_OF_ASC_NODE":"106.8586","COUNTRY_CODE":"US","TLE_LINE1":"1 47146U 20088AA  21335.68071849  .00021658  00000-0  50497-3 0  9997","SITE":"AFETR","ARG_OF_PERICENTER":"48.2043","ECCENTRICITY":"0.00019240","BSTAR":"0.00050497000000","TLE_LINE2":"2 47146  53.0562 106.8586 0001924  48.2043 311.9126 15.42203032 57014","EPOCH":"2021-12-01T16:20:14.077536","REF_FRAME":"TEME","MEAN_MOTION_DOT":"0.00021658","MEAN_MOTION_DDOT":"0.0000000000000","MEAN_ANOMALY":"311.9126","PERIAPSIS":"438.299","GP_ID":"190864450","FILE":"3229229","DECAY_DATE":null,"SEMIMAJOR_AXIS":"6817.746","PERIOD":"93.373","RCS_SIZE":"LARGE","REV_AT_EPOCH":"5701","MEAN_ELEMENT_THEORY":"SGP4","APOAPSIS":"440.923","OBJECT_TYPE":"PAYLOAD","OBJECT_NAME":"STARLINK-1859","OBJECT_ID":"2020-088AA","CLASSIFICATION_TYPE":"U","TIME_SYSTEM":"UTC","LAUNCH_DATE":"2020-11-25","CENTER_NAME":"EARTH","EPHEMERIS_TYPE":"0","NORAD_CAT_ID":"47146","MEAN_MOTION":"15.42203032","INCLINATION":"53.0562"},{"EPOCH":"2021-12-01T12:57:52.257024","TLE_LINE2":"2 47147  53.0547 100.9216 0001918  77.8006 282.3198 15.06393282 56840","REF_FRAME":"TEME","MEAN_MOTION_DOT":"-0.00000764","MEAN_MOTION_DDOT":"0.0000000000000","MEAN_ANOMALY":"282.3198","ELEMENT_SET_NO":"999","RA_OF_ASC_NODE":"100.9216","TLE_LINE1":"1 47147U 20088AB  21335.54018816 -.00000764  00000-0 -32379-4 0  9995","COUNTRY_CODE":"US","SITE":"AFETR","ECCENTRICITY":"0.00019180","ARG_OF_PERICENTER":"77.8006","BSTAR":"-0.00003237900000","LAUNCH_DATE":"2020-11-25","TIME_SYSTEM":"UTC","CLASSIFICATION_TYPE":"U","CENTER_NAME":"EARTH","EPHEMERIS_TYPE":"0","NORAD_CAT_ID":"47147","MEAN_MOTION":"15.06393282","INCLINATION":"53.0547","PERIAPSIS":"545.906","GP_ID":"190860355","RCS_SIZE":"LARGE","REV_AT_EPOCH":"5684","FILE":"3229140","DECAY_DATE":null,"PERIOD":"95.593","SEMIMAJOR_AXIS":"6925.369","OBJECT_TYPE":"PAYLOAD","MEAN_ELEMENT_THEORY":"SGP4","APOAPSIS":"548.562","OBJECT_NAME":"STARLINK-1860","OBJECT_ID":"2020-088AB"},{"MEAN_MOTION_DOT":"-0.00000175","TLE_LINE2":"2 47148  53.0553  90.7270 0001221  82.2753 277.8375 15.06397786 56984","EPOCH":"2021-12-01T13:57:34.594560","REF_FRAME":"TEME","MEAN_MOTION_DDOT":"0.0000000000000","MEAN_ANOMALY":"277.8375","TLE_LINE1":"1 47148U 20088AC  21335.58165040 -.00000175  00000-0  71655-5 0  9998","COUNTRY_CODE":"US","SITE":"AFETR","ELEMENT_SET_NO":"999","RA_OF_ASC_NODE":"90.7270","BSTAR":"0.00000716550000","ARG_OF_PERICENTER":"82.2753","ECCENTRICITY":"0.00012210","EPHEMERIS_TYPE":"0","LAUNCH_DATE":"2020-11-25","CLASSIFICATION_TYPE":"U","TIME_SYSTEM":"UTC","CENTER_NAME":"EARTH","INCLINATION":"53.0553","NORAD_CAT_ID":"47148","MEAN_MOTION":"15.06397786","REV_AT_EPOCH":"5698","RCS_SIZE":"LARGE","SEMIMAJOR_AXIS":"6925.355","FILE":"3229140","DECAY_DATE":null,"PERIOD":"95.592","PERIAPSIS":"546.375","GP_ID":"190861106","OBJECT_ID":"2020-088AC","OBJECT_TYPE":"PAYLOAD","APOAPSIS":"548.066","MEAN_ELEMENT_THEORY":"SGP4","OBJECT_NAME":"STARLINK-1861"},{"ARG_OF_PERICENTER":"85.5991","ECCENTRICITY":"0.00015380","BSTAR":"0.00004938300000","RA_OF_ASC_NODE":"100.8997","ELEMENT_SET_NO":"999","COUNTRY_CODE":"US","TLE_LINE1":"1 47149U 20088AD  21335.54386515  .00000454  00000-0  49383-4 0  9998","SITE":"AFETR","MEAN_MOTION_DDOT":"0.0000000000000","MEAN_ANOMALY":"274.5174","TLE_LINE2":"2 47149  53.0547 100.8997 0001538  85.5991 274.5174 15.06402668 57571","EPOCH":"2021-12-01T13:03:09.948960","REF_FRAME":"TEME","MEAN_MOTION_DOT":"0.00000454","APOAPSIS":"548.270","MEAN_ELEMENT_THEORY":"SGP4","OBJECT_TYPE":"PAYLOAD","OBJECT_NAME":"STARLINK-1862","OBJECT_ID":"2020-088AD","PERIAPSIS":"546.140","GP_ID":"190861357","FILE":"3229140","DECAY_DATE":null,"PERIOD":"95.592","SEMIMAJOR_AXIS":"6925.340","REV_AT_EPOCH":"5757","RCS_SIZE":"LARGE","NORAD_CAT_ID":"47149","MEAN_MOTION":"15.06402668","INCLINATION":"53.0547","TIME_SYSTEM":"UTC","CLASSIFICATION_TYPE":"U","LAUNCH_DATE":"2020-11-25","CENTER_NAME":"EARTH","EPHEMERIS_TYPE":"0"},{"CENTER_NAME":"EARTH","CLASSIFICATION_TYPE":"U","TIME_SYSTEM":"UTC","LAUNCH_DATE":"2020-11-25","EPHEMERIS_TYPE":"0","NORAD_CAT_ID":"47150","MEAN_MOTION":"15.06412787","INCLINATION":"53.0534","GP_ID":"190864820","PERIAPSIS":"546.260","FILE":"3229261","DECAY_DATE":null,"SEMIMAJOR_AXIS":"6925.309","PERIOD":"95.591","RCS_SIZE":"LARGE","REV_AT_EPOCH":"5724","OBJECT_NAME":"STARLINK-1863","APOAPSIS":"548.089","MEAN_ELEMENT_THEORY":"SGP4","OBJECT_TYPE":"PAYLOAD","OBJECT_ID":"2020-088AE","REF_FRAME":"TEME","TLE_LINE2":"2 47150  53.0534  90.6309 0001321  84.5476 275.5663 15.06412787 57240","EPOCH":"2021-12-01T14:29:23.859168","MEAN_MOTION_DOT":"0.00001665","MEAN_ANOMALY":"275.5663","MEAN_MOTION_DDOT":"0.0000000000000","RA_OF_ASC_NODE":"90.6309","ELEMENT_SET_NO":"999","SITE":"AFETR","COUNTRY_CODE":"US","TLE_LINE1":"1 47150U 20088AE  21335.60374837  .00001665  00000-0  13059-3 0  9996","ECCENTRICITY":"0.00013210","ARG_OF_PERICENTER":"84.5476","BSTAR":"0.00013059000000"}];
